NORAD_CAT_ID,OBJECT_NAME,OBJECT_TYPE,EPOCH,MEAN_MOTION,ECCENTRICITY,INCLINATION,RA_OF_ASC_NODE,ARG_OF_PERICENTER,MEAN_ANOMALY,BSTAR,MEAN_MOTION_DOT,MEAN_MOTION_DDOT,TLE_LINE0,TLE_LINE1,TLE_LINE2,SEMIMAJOR_AXIS,PERIOD,APOGEE,PERIGEE,DECAYED
52614.0,STARLINK-3982,PAYLOAD,2024-05-14 00:58:34,15.08841224,0.0001229,53.2182,12.847,94.426,265.6872,0.00060259,9.316e-05,0.0,0 STARLINK-3982,1 52614U 22052S   24135.04067526  .00009316  00000-0  60259-3 0  9998,2 52614  53.2182  12.8470 0001229  94.4260 265.6872 15.08841224111028,6917.877,95.437,540.592,538.891,0.0
52614.0,STARLINK-3982,PAYLOAD,2024-05-14 08:55:29,15.08846512,0.0001218,53.2178,11.3602,95.7803,264.3328,0.00054652,8.422e-05,0.0,0 STARLINK-3982,1 52614U 22052S   24135.37187382  .00008422  00000-0  54652-3 0  9994,2 52614  53.2178  11.3602 0001218  95.7803 264.3328 15.08846512110700,6917.86,95.437,540.568,538.883,0.0
52614.0,STARLINK-3982,PAYLOAD,2024-05-14 21:38:33,15.08879808,0.0001089,53.2174,8.981,95.3092,264.8024,0.0012515,0.00019707,0.0,0 STARLINK-3982,1 52614U 22052S   24135.90178140  .00019707  00000-0  12515-2 0  9994,2 52614  53.2174   8.9810 0001089  95.3092 264.8024 15.08879808110781,6917.759,95.435,540.377,538.87,0.0
52614.0,STARLINK-3982,PAYLOAD,2024-05-15 00:49:19,15.08897368,0.0001112,53.2179,8.3863,94.5047,265.6072,0.0018066,0.00028626,0.0,0 STARLINK-3982,1 52614U 22052S   24136.03425622  .00028626  00000-0  18066-2 0  9996,2 52614  53.2179   8.3863 0001112  94.5047 265.6072 15.08897368111173,6917.705,95.434,540.339,538.801,0.0
52614.0,STARLINK-3982,PAYLOAD,2024-05-15 08:46:15,15.08869255,0.0001758,53.2177,6.8996,78.3691,281.7499,0.00060972,9.437e-05,0.0,0 STARLINK-3982,1 52614U 22052S   24136.36545928  .00009437  00000-0  60972-3 0  9997,2 52614  53.2177   6.8996 0001758  78.3691 281.7499 15.08869255111224,6917.791,95.436,540.872,538.44,0.0
52614.0,STARLINK-3982,PAYLOAD,2024-05-15 21:29:20,15.08865833,9.16e-05,53.2179,4.5185,82.381,277.7286,0.00060908,9.426e-05,0.0,0 STARLINK-3982,1 52614U 22052S   24136.89537122  .00009426  00000-0  60908-3 0  9999,2 52614  53.2179   4.5185 0000916  82.3810 277.7286 15.08865833111300,6917.801,95.436,540.3,539.033,0.0
52614.0,STARLINK-3982,PAYLOAD,2024-05-16 00:40:06,15.0887206,0.0001038,53.2177,3.9256,71.8292,288.2813,0.0024828,0.00039482,0.0,0 STARLINK-3982,1 52614U 22052S   24137.02785146  .00039482  00000-0  24828-2 0  9991,2 52614  53.2177   3.9256 0001038  71.8292 288.2813 15.08872060111328,6917.782,95.436,540.365,538.929,0.0
52614.0,STARLINK-3982,PAYLOAD,2024-05-16 21:20:06,15.08875803,3.8e-05,53.2184,0.0601,154.7098,205.3913,0.0025236,0.00040144,0.0,0 STARLINK-3982,1 52614U 22052S   24137.88896625  .00040144  00000-0  25236-2 0  9991,2 52614  53.2184   0.0601 0000380 154.7098 205.3913 15.08875803111084,6917.771,95.435,539.899,539.373,0.0
52614.0,STARLINK-3982,PAYLOAD,2024-05-17 00:30:52,15.08868359,9.65e-05,53.2189,359.4657,269.38,90.7081,0.0019812,0.00031408,0.0,0 STARLINK-3982,1 52614U 22052S   24138.02144428  .00031408  00000-0  19812-2 0  9991,2 52614  53.2189 359.4657 0000965 269.3800  90.7081 15.08868359111477,6917.794,95.436,540.326,538.991,0.0
52614.0,STARLINK-3982,PAYLOAD,2024-05-17 21:10:54,15.08860813,5.49e-05,53.218,355.5988,91.4155,268.69,0.0018127,0.00028695,0.0,0 STARLINK-3982,1 52614U 22052S   24138.88257046  .00028695  00000-0  18127-2 0  9998,2 52614  53.2180 355.5988 0000549  91.4155 268.6900 15.08860813111605,6917.817,95.436,540.062,539.302,0.0
52614.0,STARLINK-3982,PAYLOAD,2024-05-18 14:40:08,15.08861487,0.0001628,53.2179,352.3294,294.393,65.6892,0.0017261,0.00027306,0.0,0 STARLINK-3982,1 52614U 22052S   24139.61120974  .00027306  00000-0  17261-2 0  9995,2 52614  53.2179 352.3294 0001628 294.3930  65.6892 15.08861487111346,6917.815,95.436,540.806,538.553,0.0
52614.0,STARLINK-3982,PAYLOAD,2024-05-18 21:01:40,15.08890536,5.52e-05,53.2164,351.137,62.6394,297.4655,0.0024184,0.00038464,0.0,0 STARLINK-3982,1 52614U 22052S   24139.87616225  .00038464  00000-0  24184-2 0  9991,2 52614  53.2164 351.1370 0000552  62.6394 297.4655 15.08890536111751,6917.726,95.434,539.973,539.209,0.0
52614.0,STARLINK-3982,PAYLOAD,2024-05-19 14:30:55,15.08841468,8.83e-05,53.2168,347.8655,58.1619,301.9459,0.00075801,0.00011797,0.0,0 STARLINK-3982,1 52614U 22052S   24140.60480881  .00011797  00000-0  75801-3 0  9994,2 52614  53.2168 347.8655 0000883  58.1619 301.9459 15.08841468111494,6917.876,95.437,540.352,539.13,0.0
52614.0,STARLINK-3982,PAYLOAD,2024-05-19 19:17:05,15.08818591,6.72e-05,53.2175,346.9748,91.3198,268.7871,0.0009822,0.00015369,0.0,0 STARLINK-3982,1 52614U 22052S   24140.80353168  .00015369  00000-0  98220-3 0  9992,2 52614  53.2175 346.9748 0000672  91.3198 268.7871 15.08818591111895,6917.946,95.439,540.276,539.346,0.0
52614.0,STARLINK-3982,PAYLOAD,2024-05-20 14:21:43,15.08834623,9.69e-05,53.2168,343.4074,29.532,330.5726,0.00093375,0.00014602,0.0,0 STARLINK-3982,1 52614U 22052S   24141.59842297  .00014602  00000-0  93375-3 0  9990,2 52614  53.2168 343.4074 0000969  29.5320 330.5726 15.08834623111644,6917.897,95.438,540.432,539.091,0.0
52614.0,STARLINK-3982,PAYLOAD,2024-05-20 20:43:16,15.08855785,8.3e-05,53.2168,342.2185,48.0449,312.0614,0.0015474,0.00024435,0.0,0 STARLINK-3982,1 52614U 22052S   24141.86338014  .00024435  00000-0  15474-2 0  9995,2 52614  53.2168 342.2185 0000830  48.0449 312.0614 15.08855785112058,6917.832,95.437,540.271,539.123,0.0
52614.0,STARLINK-3982,PAYLOAD,2024-05-21 20:34:03,15.08849381,0.0001139,53.217,337.7584,40.8548,319.2529,0.00054203,8.351e-05,0.0,0 STARLINK-3982,1 52614U 22052S   24142.85698143  .00008351  00000-0  54203-3 0  9990,2 52614  53.2170 337.7584 0001139  40.8548 319.2529 15.08849381112202,6917.852,95.437,540.505,538.929,0.0
52614.0,STARLINK-3982,PAYLOAD,2024-05-21 22:09:26,15.0885207,7.69e-05,53.2168,337.4623,57.048,303.0586,0.00058965,9.112e-05,0.0,0 STARLINK-3982,1 52614U 22052S   24142.92321965  .00009112  00000-0  58965-3 0  9998,2 52614  53.2168 337.4623 0000769  57.0480 303.0586 15.08852070111845,6917.843,95.437,540.24,539.177,0.0
52614.0,STARLINK-3982,PAYLOAD,2024-05-22 20:24:50,15.08842998,5.25e-05,53.2171,333.2946,84.0938,276.0114,0.00035686,5.397e-05,0.0,0 STARLINK-3982,1 52614U 22052S   24143.85057997  .00005397  00000-0  35686-3 0  9998,2 52614  53.2171 333.2946 0000525  84.0938 276.0114 15.08842998112350,6917.871,95.437,540.099,539.373,0.0
52614.0,STARLINK-3982,PAYLOAD,2024-05-23 12:18:41,15.08840769,7.31e-05,53.2172,330.3274,53.8521,306.2539,0.0001955,2.825e-05,0.0,0 STARLINK-3982,1 52614U 22052S   24144.51298333  .00002825  00000-0  19550-3 0  9998,2 52614  53.2172 330.3274 0000731  53.8521 306.2539 15.08840769112456,6917.878,95.438,540.249,539.237,0.0
52614.0,STARLINK-3982,PAYLOAD,2024-05-23 18:40:14,15.08844548,8.43e-05,53.2165,329.137,54.4143,305.6928,0.00023583,3.468e-05,0.0,0 STARLINK-3982,1 52614U 22052S   24144.77794109  .00003468  00000-0  23583-3 0  9993,2 52614  53.2165 329.1370 0000843  54.4143 305.6928 15.08844548112120,6917.866,95.437,540.315,539.148,0.0
52614.0,STARLINK-3982,PAYLOAD,2024-05-24 18:31:01,15.08846508,6.14e-05,53.2168,324.676,132.2024,227.902,0.00037154,5.631e-05,0.0,0 STARLINK-3982,1 52614U 22052S   24145.77154454  .00005631  00000-0  37154-3 0  9990,2 52614  53.2168 324.6760 0000614 132.2024 227.9020 15.08846508112649,6917.86,95.437,540.15,539.301,0.0
52614.0,STARLINK-3982,PAYLOAD,2024-05-24 21:41:47,15.08846441,5.01e-05,53.2169,324.0788,118.2679,241.8364,0.00038049,5.774e-05,0.0,0 STARLINK-3982,1 52614U 22052S   24145.90402498  .00005774  00000-0  38049-3 0  9991,2 52614  53.2169 324.0788 0000501 118.2679 241.8364 15.08846441112292,6917.861,95.437,540.072,539.379,0.0
52614.0,STARLINK-3982,PAYLOAD,2024-05-25 12:00:16,15.08833672,5.77e-05,53.2165,321.3972,131.8784,228.2258,3.8293e-05,3.22e-06,0.0,0 STARLINK-3982,1 52614U 22052S   24146.50018790  .00000322  00000-0  38293-4 0  9992,2 52614  53.2165 321.3972 0000577 131.8784 228.2258 15.08833672112758,6917.9,95.438,540.164,539.366,0.0
52614.0,STARLINK-3982,PAYLOAD,2024-05-26 15:01:50,15.08836774,5.8e-05,53.2181,316.3541,104.6154,255.4903,9.1186e-05,1.164e-05,0.0,0 STARLINK-3982,1 52614U 22052S   24147.62627742  .00001164  00000-0  91186-4 0  9994,2 52614  53.2181 316.3541 0000580 104.6154 255.4903 15.08836774112558,6917.89,95.438,540.156,539.354,0.0
52614.0,STARLINK-3982,PAYLOAD,2024-05-26 18:12:36,15.08840614,5.03e-05,53.2169,315.7541,68.624,291.4806,0.00017961,2.572e-05,0.0,0 STARLINK-3982,1 52614U 22052S   24147.75875501  .00002572  00000-0  17961-3 0  9998,2 52614  53.2169 315.7541 0000503  68.6240 291.4806 15.08840614112940,6917.879,95.438,540.091,539.396,0.0
52614.0,STARLINK-3982,PAYLOAD,2024-05-27 11:41:50,15.08850731,6.96e-05,53.2178,312.4836,63.8549,296.2514,0.00032454,4.883e-05,0.0,0 STARLINK-3982,1 52614U 22052S   24148.48739156  .00004883  00000-0  32454-3 0  9995,2 52614  53.2178 312.4836 0000696  63.8549 296.2514 15.08850731113056,6917.848,95.437,540.194,539.231,0.0
52614.0,STARLINK-3982,PAYLOAD,2024-05-27 14:52:36,15.08853875,7.64e-05,53.2186,311.8917,86.7441,273.3639,0.00036763,5.57e-05,0.0,0 STARLINK-3982,1 52614U 22052S   24148.61986898  .00005570  00000-0  36763-3 0  9998,2 52614  53.2186 311.8917 0000764  86.7441 273.3639 15.08853875112706,6917.838,95.437,540.232,539.174,0.0
52614.0,STARLINK-3982,PAYLOAD,2024-05-27 18:03:22,15.08858356,7.64e-05,53.2186,311.2973,86.2113,273.8966,0.00043728,6.682e-05,0.0,0 STARLINK-3982,1 52614U 22052S   24148.75234711  .00006682  00000-0  43728-3 0  9997,2 52614  53.2186 311.2973 0000764  86.2113 273.8966 15.08858356112722,6917.824,95.436,540.218,539.161,0.0
52614.0,STARLINK-3982,PAYLOAD,2024-05-28 03:35:40,15.08869232,7.24e-05,53.2183,309.51,82.6017,277.5058,0.00052373,8.064e-05,0.0,0 STARLINK-3982,1 52614U 22052S   24149.14977833  .00008064  00000-0  52373-3 0  9992,2 52614  53.2183 309.5100 0000724  82.6017 277.5058 15.08869232113156,6917.791,95.436,540.157,539.155,0.0
